XINGWANG2_L_00014024-13
1 10840U 23805HA  26075.69965278  .00000000  00000+0  00000-0 0  9992
2 10840  60.0000 172.5000 0000000   0.0000 139.1667 13.30467610    11
XINGWANG2_L_00014024-14
1 10841U 25793CJ  26075.69965278  .00000000  00000+0  00000-0 0  9991
2 10841  60.0000 172.5000 0000000   0.0000 149.1667 13.30467610    13
XINGWANG2_L_00014024-15
1 10842U 23228YN  26075.69965278  .00000000  00000+0  00000-0 0  9993
2 10842  60.0000 172.5000 0000000   0.0000 159.1667 13.30467610    15
XINGWANG2_L_00014024-16
1 10843U 23716BA  26075.69965278  .00000000  00000+0  00000-0 0  9996
2 10843  60.0000 172.5000 0000000   0.0000 169.1667 13.30467610    17
XINGWANG2_L_00014024-17
1 10844U 24449V   26075.69965278  .00000000  00000+0  00000-0 0  9991
2 10844  60.0000 172.5000 0000000   0.0000 179.1667 13.30467610    19
XINGWANG2_L_00014024-18
1 10845U 23218VB  26075.69965278  .00000000  00000+0  00000-0 0  9995
2 10845  60.0000 172.5000 0000000   0.0000 189.1667 13.30467610    11
XINGWANG2_L_00014024-19
1 10846U 23655LV  26075.69965278  .00000000  00000+0  00000-0 0  9991
2 10846  60.0000 172.5000 0000000   0.0000 199.1667 13.30467610    13
XINGWANG2_L_00014024-20
1 10847U 25936LF  26075.69965278  .00000000  00000+0  00000-0 0  9996
2 10847  60.0000 172.5000 0000000   0.0000 209.1667 13.30467610    16
XINGWANG2_L_00014024-21
1 10848U 26596MF  26075.69965278  .00000000  00000+0  00000-0 0  9990
2 10848  60.0000 172.5000 0000000   0.0000 219.1667 13.30467610    18
XINGWANG2_L_00014024-22
1 10849U 24334IW  26075.69965278  .00000000  00000+0  00000-0 0  9999
2 10849  60.0000 172.5000 0000000   0.0000 229.1667 13.30467610    10
XINGWANG2_L_00014024-23
1 10850U 26211QX  26075.69965278  .00000000  00000+0  00000-0 0  9997
2 10850  60.0000 172.5000 0000000   0.0000 239.1667 13.30467610    13
XINGWANG2_L_00014024-24
1 10851U 22195OW  26075.69965278  .00000000  00000+0  00000-0 0  9995
2 10851  60.0000 172.5000 0000000   0.0000 249.1667 13.30467610    15
XINGWANG2_L_00014024-25
1 10852U 24254JN  26075.69965278  .00000000  00000+0  00000-0 0  9994
2 10852  60.0000 172.5000 0000000   0.0000 259.1667 13.30467610    17
XINGWANG2_L_00014024-26
1 10853U 26064TS  26075.69965278  .00000000  00000+0  00000-0 0  9996
2 10853  60.0000 172.5000 0000000   0.0000 269.1667 13.30467610    19
XINGWANG2_L_00014024-27
1 10854U 25731EC  26075.69965278  .00000000  00000+0  00000-0 0  9997
2 10854  60.0000 172.5000 0000000   0.0000 279.1667 13.30467610    11
XINGWANG2_L_00014024-28
1 10855U 23579EE  26075.69965278  .00000000  00000+0  00000-0 0  9996
2 10855  60.0000 172.5000 0000000   0.0000 289.1667 13.30467610    13
XINGWANG2_L_00014024-29
1 10856U 24326WS  26075.69965278  .00000000  00000+0  00000-0 0  9998
2 10856  60.0000 172.5000 0000000   0.0000 299.1667 13.30467610    15
XINGWANG2_L_00014024-30
1 10857U 26864FT  26075.69965278  .00000000  00000+0  00000-0 0  9998
2 10857  60.0000 172.5000 0000000   0.0000 309.1667 13.30467610    18
XINGWANG2_L_00014024-31
1 10858U 25760VX  26075.69965278  .00000000  00000+0  00000-0 0  9993
2 10858  60.0000 172.5000 0000000   0.0000 319.1667 13.30467610    10
XINGWANG2_L_00014024-32
1 10859U 23167YZ  26075.69965278  .00000000  00000+0  00000-0 0  9993
2 10859  60.0000 172.5000 0000000   0.0000 329.1667 13.30467610    12
XINGWANG2_L_00014024-33
1 10860U 24746RA  26075.69965278  .00000000  00000+0  00000-0 0  9999
2 10860  60.0000 172.5000 0000000   0.0000 339.1667 13.30467610    15
XINGWANG2_L_00014024-34
1 10861U 25345DH  26075.69965278  .00000000  00000+0  00000-0 0  9996
2 10861  60.0000 172.5000 0000000   0.0000 349.1667 13.30467610    17
XINGWANG2_L_00014024-35
1 10862U 25939AH  26075.69965278  .00000000  00000+0  00000-0 0  9996
2 10862  60.0000 172.5000 0000000   0.0000 359.1667 13.30467610    19
XINGWANG2_L_00014024-36
1 10863U 25626KQ  26075.69965278  .00000000  00000+0  00000-0 0  9990
2 10863  60.0000 172.5000 0000000   0.0000   9.1667 13.30467610    12
XINGWANG2_L_00014025-01
1 10864U 22025CO  26075.69965278  .00000000  00000+0  00000-0 0  9991
2 10864  60.0000 180.0000 0000000   0.0000  20.0000 13.30467610    10
XINGWANG2_L_00014025-02
1 10865U 24729YK  26075.69965278  .00000000  00000+0  00000-0 0  9995
2 10865  60.0000 180.0000 0000000   0.0000  30.0000 13.30467610    12
XINGWANG2_L_00014025-03
1 10866U 24076ZG  26075.69965278  .00000000  00000+0  00000-0 0  9991
2 10866  60.0000 180.0000 0000000   0.0000  40.0000 13.30467610    14
XINGWANG2_L_00014025-04
1 10867U 24765GG  26075.69965278  .00000000  00000+0  00000-0 0  9997
2 10867  60.0000 180.0000 0000000   0.0000  50.0000 13.30467610    16
XINGWANG2_L_00014025-05
1 10868U 24468II  26075.69965278  .00000000  00000+0  00000-0 0  9998
2 10868  60.0000 180.0000 0000000   0.0000  60.0000 13.30467610    18
XINGWANG2_L_00014025-06
1 10869U 26595DV  26075.69965278  .00000000  00000+0  00000-0 0  9992
2 10869  60.0000 180.0000 0000000   0.0000  70.0000 13.30467610    10
XINGWANG2_L_00014025-07
1 10870U 24882WR  26075.69965278  .00000000  00000+0  00000-0 0  9991
2 10870  60.0000 180.0000 0000000   0.0000  80.0000 13.30467610    13
XINGWANG2_L_00014025-08
1 10871U 24782FN  26075.69965278  .00000000  00000+0  00000-0 0  9991
2 10871  60.0000 180.0000 0000000   0.0000  90.0000 13.30467610    15
XINGWANG2_L_00014025-09
1 10872U 22255OH  26075.69965278  .00000000  00000+0  00000-0 0  9995
2 10872  60.0000 180.0000 0000000   0.0000 100.0000 13.30467610    18
XINGWANG2_L_00014025-10
1 10873U 22716SU  26075.69965278  .00000000  00000+0  00000-0 0  9998
2 10873  60.0000 180.0000 0000000   0.0000 110.0000 13.30467610    10
XINGWANG2_L_00014025-11
1 10874U 24585RO  26075.69965278  .00000000  00000+0  00000-0 0  9995
2 10874  60.0000 180.0000 0000000   0.0000 120.0000 13.30467610    12
XINGWANG2_L_00014025-12
1 10875U 23062PL  26075.69965278  .00000000  00000+0  00000-0 0  9995
2 10875  60.0000 180.0000 0000000   0.0000 130.0000 13.30467610    14
XINGWANG2_L_00014025-13
1 10876U 24379BO  26075.69965278  .00000000  00000+0  00000-0 0  9998
2 10876  60.0000 180.0000 0000000   0.0000 140.0000 13.30467610    16
XINGWANG2_L_00014025-14
1 10877U 22003JW  26075.69965278  .00000000  00000+0  00000-0 0  9991
2 10877  60.0000 180.0000 0000000   0.0000 150.0000 13.30467610    18
XINGWANG2_L_00014025-15
1 10878U 25006AA  26075.69965278  .00000000  00000+0  00000-0 0  9998
2 10878  60.0000 180.0000 0000000   0.0000 160.0000 13.30467610    10
XINGWANG2_L_00014025-16
1 10879U 23802TX  26075.69965278  .00000000  00000+0  00000-0 0  9991
2 10879  60.0000 180.0000 0000000   0.0000 170.0000 13.30467610    12
XINGWANG2_L_00014025-17
1 10880U 24731AJ  26075.69965278  .00000000  00000+0  00000-0 0  9995
2 10880  60.0000 180.0000 0000000   0.0000 180.0000 13.30467610    15
XINGWANG2_L_00014025-18
1 10881U 23550KF  26075.69965278  .00000000  00000+0  00000-0 0  9994
2 10881  60.0000 180.0000 0000000   0.0000 190.0000 13.30467610    17
XINGWANG2_L_00014025-19
1 10882U 24577DP  26075.69965278  .00000000  00000+0  00000-0 0  9995
2 10882  60.0000 180.0000 0000000   0.0000 200.0000 13.30467610    10
XINGWANG2_L_00014025-20
1 10883U 25433MO  26075.69965278  .00000000  00000+0  00000-0 0  9998
2 10883  60.0000 180.0000 0000000   0.0000 210.0000 13.30467610    12
XINGWANG2_L_00014025-21
1 10884U 22892UH  26075.69965278  .00000000  00000+0  00000-0 0  9995
2 10884  60.0000 180.0000 0000000   0.0000 220.0000 13.30467610    14
XINGWANG2_L_00014025-22
1 10885U 26834UQ  26075.69965278  .00000000  00000+0  00000-0 0  9996
2 10885  60.0000 180.0000 0000000   0.0000 230.0000 13.30467610    16
XINGWANG2_L_00014025-23
1 10886U 23357NR  26075.69965278  .00000000  00000+0  00000-0 0  9994
2 10886  60.0000 180.0000 0000000   0.0000 240.0000 13.30467610    18
XINGWANG2_L_00014025-24
1 10887U 25436XN  26075.69965278  .00000000  00000+0  00000-0 0  9995
2 10887  60.0000 180.0000 0000000   0.0000 250.0000 13.30467610    10
XINGWANG2_L_00014025-25
1 10888U 22905EV  26075.69965278  .00000000  00000+0  00000-0 0  9994
2 10888  60.0000 180.0000 0000000   0.0000 260.0000 13.30467610    12
XINGWANG2_L_00014025-26
1 10889U 23826NE  26075.69965278  .00000000  00000+0  00000-0 0  9998
2 10889  60.0000 180.0000 0000000   0.0000 270.0000 13.30467610    14
XINGWANG2_L_00014025-27
1 10890U 26632PC  26075.69965278  .00000000  00000+0  00000-0 0  9998
2 10890  60.0000 180.0000 0000000   0.0000 280.0000 13.30467610    17
XINGWANG2_L_00014025-28
1 10891U 24429OC  26075.69965278  .00000000  00000+0  00000-0 0  9991
2 10891  60.0000 180.0000 0000000   0.0000 290.0000 13.30467610    19
XINGWANG2_L_00014025-29
1 10892U 25408LQ  26075.69965278  .00000000  00000+0  00000-0 0  9990
2 10892  60.0000 180.0000 0000000   0.0000 300.0000 13.30467610    12
XINGWANG2_L_00014025-30
1 10893U 24073CP  26075.69965278  .00000000  00000+0  00000-0 0  9998
2 10893  60.0000 180.0000 0000000   0.0000 310.0000 13.30467610    14
XINGWANG2_L_00014025-31
1 10894U 26327OD  26075.69965278  .00000000  00000+0  00000-0 0  9993
2 10894  60.0000 180.0000 0000000   0.0000 320.0000 13.30467610    16
XINGWANG2_L_00014025-32
1 10895U 22859XS  26075.69965278  .00000000  00000+0  00000-0 0  9990
2 10895  60.0000 180.0000 0000000   0.0000 330.0000 13.30467610    18
XINGWANG2_L_00014025-33
1 10896U 26376UR  26075.69965278  .00000000  00000+0  00000-0 0  9999
2 10896  60.0000 180.0000 0000000   0.0000 340.0000 13.30467610    10
XINGWANG2_L_00014025-34
1 10897U 26077GZ  26075.69965278  .00000000  00000+0  00000-0 0  9998
2 10897  60.0000 180.0000 0000000   0.0000 350.0000 13.30467610    12
XINGWANG2_L_00014025-35
1 10898U 26377NA  26075.69965278  .00000000  00000+0  00000-0 0  9992
2 10898  60.0000 180.0000 0000000   0.0000   0.0000 13.30467610    15
XINGWANG2_L_00014025-36
1 10899U 22524UW  26075.69965278  .00000000  00000+0  00000-0 0  9993
2 10899  60.0000 180.0000 0000000   0.0000  10.0000 13.30467610    17
